#cP2025  7  3  0  0  0.00000000     289 d     IGb20 FIT AIUB
## 2373 345600.00000000   300.00000000 60859 0.0000000000000
+   83   G01G02G03G04G05G06G07G08G09G10G11G12G13G14G15G16G17
+        G18G19G20G21G22G23G24G25G26G27G28G29G30G31G32R02R03
+        R04R05R07R08R09R11R12R14R15R16R17R18R19R20R21R22R24
+        R25R26R27E02E03E04E05E06E07E08E09E10E11E12E13E14E15
+        E16E18E19E21E23E24E25E26E27E29E30E31E33E34E36  0  0
++         5  5  5  5  5  5  5  7  6  5  5  5  5  5  6  5  6
++         5  6  9  5  5  5  5  5  5  6  5  6  5  5  6  6  6
++         6  6  6  6  5  5  5  5  5  5  5  5  5  6  5  5  5
++        10  6  6  5  5  5  5  5  5  5  5  5  5  5  5  6  5
++         5  7  5  5  5  5  5  5  5  5  5  5  5  5  5  0  0
%c M  cc GPS ccc cccc cccc cccc cccc ccccc ccccc ccccc ccccc
%c cc cc ccc ccc cccc cccc cccc cccc ccccc ccccc ccccc ccccc
%f  1.2500000  1.025000000  0.00000000000  0.000000000000000
%f  0.0000000  0.000000000  0.00000000000  0.000000000000000
%i    0    0    0    0      0      0      0      0         0
%i    0    0    0    0      0      0      0      0         0
/* Center for Orbit Determination in Europe (CODE)          
/* Rapid GNSS orbits and clocks for year-day 25184          
/* Note: Middle day of a 3-day arc GRE solution             
/* PCV:IGS20      OL/AL:FES2014b NONE     YN ORB:CoN CLK:CoN
*  2025  7  3  1 35  0.00000000
PG01 -21633.657796 -13874.884425   6758.615489    306.548428
PG02 -20202.014318 -17015.125264  -4113.736577   -131.167939
PG03 -12275.757418 -10281.526571  21027.307381    692.271809
PG04 -21802.302366  -3336.876623  14932.259978    585.534863
PG05   6701.522260  22021.577852 -13386.503570   -213.934207
PG06  -4848.384874  14595.329956  21698.660963   -432.682974
PG07 -20373.937494  -1129.129697 -16649.749698    -43.143570
PG08 -14634.526817  -9528.980045 -20280.182086    528.873496
PG09 -25217.856404   6812.281680   4896.750398    697.712937
PG10  10442.110951 -21821.908465 -10327.238072   -470.717331
PG11   6771.018778  20433.656246  15643.556118   -681.450804
PG12  11817.004748  11995.779623  20264.345411   -590.934529
PG13   4678.435809  14336.139364 -22120.731416    701.059712
PG14 -12449.940764  19846.065718 -12183.647938    667.427412
PG15  15479.452682   8258.248505 -20504.769209    313.365128
PG16  -1408.184827 -24372.311185 -10264.608284     51.426491
PG17 -21437.811926  13386.733333   8920.987221    207.885306
PG18  19053.445247   -512.762799 -18570.932961   -601.126090
PG19 -14235.823883  15370.893591  15913.899475    643.012714
PG20   2437.212949  26388.166919  -2429.296018    363.753161
PG21  -2351.925842  26243.052751  -3336.404635     74.869553
PG22 -10046.677068  24036.822968  -5581.278031   -101.527536
PG23  14697.151415  -8630.584015 -20250.204745    504.353413
PG24  22047.994549  15180.381862  -1056.906406   -367.278707
PG25  15431.323829   -355.705464  21236.460181    481.994217
PG26   3474.643945 -25981.650501   2444.609287   -266.851479
PG27  -2388.524032 -15532.958914 -21699.318449    -23.808839
PG28   7314.117843 -13462.497628  21693.261083   -628.703307
PG29  25688.385027  -3324.269689   6168.468666   -487.383377
PG30 -12825.069412   9605.694748 -21028.949473   -102.721099
PG31  -2038.667911 -18726.731198  18330.355311   -201.686283
PG32  17999.938621 -15766.280418  11558.923595   -405.236911
PR02  19725.088645  -7985.399119 -13971.243476    -29.251823
PR03  17965.823271 -17643.703400   3928.221038    125.199136
PR04   6701.951375 -16444.918058  18332.922795    298.820633
PR05  -8345.514647  -6842.332118  23121.908074    152.289816
PR07 -18099.617182  17606.444934  -3753.745868    108.402567
PR08  -6304.539977  16497.336659 -18361.695357     -4.684503
PR09 -11785.463078  -1384.841287 -22562.339861    264.319906
PR11   2016.914715  24773.566914  -5671.130336     14.825702
PR12  10149.348730  19224.938438  13381.032725     56.208486
PR14   6079.190690 -16220.201967  18754.166570     28.852966
PR15  -2689.409065 -25043.990978   4097.074667     66.651824
PR16 -10056.578426 -19294.449295 -13331.220356     37.392872
PR17  12112.197905  -6202.152742 -21583.293815    206.008629
PR18  -4672.969435 -12395.158637 -21796.571673    209.864638
PR19 -19540.785369 -12962.151531  -9977.189382    -20.693487
PR20 -23380.631980  -5637.786631   8549.642082   -132.771765
PR21 -13901.373605   4943.867322  20792.547925   -215.983157
PR22   5718.494758  13130.706315  21129.273160     73.054567
PR24  23603.599388   3954.521673  -8850.796247   -111.222369
PR25 -17424.874317 -13515.577435 -12814.754616 999999.999999
PR26  -8248.411765  17317.154005 -16783.231308   -121.772052
PR27 -19330.327258   7160.962579  15042.447825    -31.471905
PE02  -7260.753369  28660.675809   1544.199538    231.566355
PE03  -9278.541252  17861.954525 -21701.178796   -201.711888
PE04 -13192.726115 -13102.571829  23034.052195   -275.404542
PE05 -25928.722762  12046.262903  -7637.533294   4865.118765
PE06 -22119.853323  -7559.428058  18143.434821   -137.874372
PE07  27421.699851    980.678640 -11126.689165   -193.113900
PE08  12656.683045  13218.100546 -23271.481087   -493.059420
PE09 -27364.266984   -999.655050  11210.565800   -952.248006
PE10 -22365.783619 -18778.644237   4792.514108   -720.624535
PE11 -23423.143794 -10969.962342  14386.332436   -218.597477
PE12 -18177.809176 -22974.749417  -4293.335531  -2276.343447
PE13  23436.726620  11380.651314 -14046.596740    -36.561514
PE14  -8393.514389  16804.893507  15491.957181  -1965.762138
PE15  17778.297443  23137.457460   4962.597674   -183.973733
PE16 -18119.455432   8556.760633 -21774.356562    -47.896447
PE18  17895.575179 -20443.530882 -16472.179721   1620.720086
PE19  10948.614909 -17605.207338  21138.404382   1966.119094
PE21  16848.102133 -18410.306906  15924.694400   -674.963701
PE23   6986.847327 -28722.829765  -1657.242241     -3.482585
PE24 -16798.345783  -2846.331830 -24216.755615    -39.063107
PE25 -16974.562411  17968.657581 -16275.770926     18.608357
PE26  15157.199214  -7200.189757 -24384.663237      6.110085
PE27  16688.517836   3042.367725  24262.211124   -704.539783
PE29  25800.072708 -12199.830291   7852.170740   -110.450476
PE30   6912.415714  22159.511251  18365.378530  -1727.617889
PE31  -6682.154496 -22391.296604 -18160.033144    -75.126204
PE33  -1451.630535 -20917.633974 -20891.478199     12.625870
PE34   1804.235072  21074.655446  20703.430819   -190.640377
PE36 -15316.899493   6717.925561  24419.459053   -417.492735
EOF
